{
  "type": "FeatureCollection",
  "features": [{
    "type": "Feature",
    "properties": { "name": "Iran" },
    "geometry": {
      "type": "Polygon",
      "coordinates": [[
        [44.03,39.78],[46.55,38.88],[48.88,38.45],[50.25,37.50],[53.92,37.35],
        [56.18,38.08],[57.20,37.55],[59.37,37.45],[61.12,36.65],[61.62,35.15],
        [60.84,34.05],[60.52,31.48],[61.84,29.85],[61.76,27.20],[59.65,25.38],
        [57.05,25.63],[54.75,26.72],[52.55,27.83],[50.88,29.08],[48.52,29.93],
        [47.45,31.00],[45.45,32.10],[44.75,34.55],[45.35,36.55],[44.03,39.78]
      ]]
    }
  }]
}
